{
  "type": "FeatureCollection",
  "features": [
    {
      "type": "Feature",
      "properties": {
        "norad_id": 33376,
        "name": "GALAXY 19 (G-19)",
        "group": "intelsat",
        "lat": 0.013344757137960338,
        "lon": 115.10831491455284,
        "alt_km": 35799.59015996311,
        "timestamp": "2025-12-08T08:59:00.439716+00:00",
        "meta_object_name": "GALAXY 19 (G-19)",
        "meta_object_id": "2008-045A",
        "meta_epoch": "2025-12-07T21:44:04.473312",
        "meta_mean_motion": 1.0026955,
        "meta_eccentricity": 0.00033833,
        "meta_inclination": 0.0159,
        "meta_ra_of_asc_node": 303.6828,
        "meta_arg_of_pericenter": 325.4261,
        "meta_mean_anomaly": 36.8304,
        "meta_ephemeris_type": 0,
        "meta_classification_type": "U",
        "meta_norad_cat_id": 33376,
        "meta_element_set_no": 999,
        "meta_rev_at_epoch": 6298,
        "meta_bstar": 0,
        "meta_mean_motion_dot": -1.36e-06,
        "meta_mean_motion_ddot": 0,
        "tle_line1": "1 33376U 08045A   25341.90560733 -.00000136  00000+0  00000+0 0  9996",
        "tle_line2": "2 33376   0.0159 303.6828 0003383 325.4261  36.8304  1.00269550 62986"
      },
      "geometry": {
        "type": "Point",
        "coordinates": [
          115.10831491455284,
          0.013344757137960338
        ]
      }
    },
    {
      "type": "Feature",
      "properties": {
        "norad_id": 35493,
        "name": "FM-5",
        "group": "intelsat",
        "lat": 0.00234902635859684,
        "lon": 125.97874802219502,
        "alt_km": 35784.49207962633,
        "timestamp": "2025-12-08T08:59:00.439730+00:00",
        "meta_object_name": "FM-5",
        "meta_object_id": "2009-034A",
        "meta_epoch": "2025-12-07T21:47:04.186176",
        "meta_mean_motion": 1.00271462,
        "meta_eccentricity": 7.317e-05,
        "meta_inclination": 0.0197,
        "meta_ra_of_asc_node": 289.0381,
        "meta_arg_of_pericenter": 252.8974,
        "meta_mean_anomaly": 135.6117,
        "meta_ephemeris_type": 0,
        "meta_classification_type": "U",
        "meta_norad_cat_id": 35493,
        "meta_element_set_no": 999,
        "meta_rev_at_epoch": 4472,
        "meta_bstar": 0,
        "meta_mean_motion_dot": -1.97e-06,
        "meta_mean_motion_ddot": 0,
        "tle_line1": "1 35493U 09034A   25341.90768734 -.00000197  00000+0  00000+0 0  9995",
        "tle_line2": "2 35493   0.0197 289.0381 0000731 252.8974 135.6117  1.00271462 44726"
      },
      "geometry": {
        "type": "Point",
        "coordinates": [
          125.97874802219502,
          0.00234902635859684
        ]
      }
    },
    {
      "type": "Feature",
      "properties": {
        "norad_id": 36097,
        "name": "INTELSAT 14 (IS-14)",
        "group": "intelsat",
        "lat": -0.008333953056035568,
        "lon": 167.10640232358048,
        "alt_km": 35787.576920715925,
        "timestamp": "2025-12-08T08:59:00.439746+00:00",
        "meta_object_name": "INTELSAT 14 (IS-14)",
        "meta_object_id": "2009-064A",
        "meta_epoch": "2025-12-07T21:58:54.209280",
        "meta_mean_motion": 1.0027074,
        "meta_eccentricity": 0.00027145,
        "meta_inclination": 0.01,
        "meta_ra_of_asc_node": 325.0553,
        "meta_arg_of_pericenter": 297.837,
        "meta_mean_anomaly": 98.7745,
        "meta_ephemeris_type": 0,
        "meta_classification_type": "U",
        "meta_norad_cat_id": 36097,
        "meta_element_set_no": 999,
        "meta_rev_at_epoch": 5868,
        "meta_bstar": 0,
        "meta_mean_motion_dot": -2.7e-06,
        "meta_mean_motion_ddot": 0,
        "tle_line1": "1 36097U 09064A   25341.91590520 -.00000270  00000+0  00000+0 0  9998",
        "tle_line2": "2 36097   0.0100 325.0553 0002714 297.8370  98.7745  1.00270740 58689"
      },
      "geometry": {
        "type": "Point",
        "coordinates": [
          167.10640232358048,
          -0.008333953056035568
        ]
      }
    },
    {
      "type": "Feature",
      "properties": {
        "norad_id": 36106,
        "name": "INTELSAT 15 (IS-15)",
        "group": "intelsat",
        "lat": -0.030108455893366554,
        "lon": -62.702279394337204,
        "alt_km": 35777.94131314575,
        "timestamp": "2025-12-08T08:59:00.439758+00:00",
        "meta_object_name": "INTELSAT 15 (IS-15)",
        "meta_object_id": "2009-067A",
        "meta_epoch": "2025-12-07T22:35:58.159104",
        "meta_mean_motion": 1.00270269,
        "meta_eccentricity": 0.00024874,
        "meta_inclination": 0.0155,
        "meta_ra_of_asc_node": 356.1908,
        "meta_arg_of_pericenter": 265.7983,
        "meta_mean_anomaly": 239.1138,
        "meta_ephemeris_type": 0,
        "meta_classification_type": "U",
        "meta_norad_cat_id": 36106,
        "meta_element_set_no": 999,
        "meta_rev_at_epoch": 3931,
        "meta_bstar": 0,
        "meta_mean_motion_dot": -1.82e-06,
        "meta_mean_motion_ddot": 0,
        "tle_line1": "1 36106U 09067A   25341.94164536 -.00000182  00000+0  00000+0 0  9991",
        "tle_line2": "2 36106   0.0155 356.1908 0002487 265.7983 239.1138  1.00270269 39312"
      },
      "geometry": {
        "type": "Point",
        "coordinates": [
          -62.702279394337204,
          -0.030108455893366554
        ]
      }
    },
    {
      "type": "Feature",
      "properties": {
        "norad_id": 36131,
        "name": "DIRECTV 12",
        "group": "intelsat",
        "lat": 0.016923921093200612,
        "lon": 109.40690300665634,
        "alt_km": 35787.34288833321,
        "timestamp": "2025-12-08T08:59:00.439770+00:00",
        "meta_object_name": "DIRECTV 12",
        "meta_object_id": "2009-075A",
        "meta_epoch": "2025-12-07T21:42:27.128160",
        "meta_mean_motion": 1.00270632,
        "meta_eccentricity": 4.011e-05,
        "meta_inclination": 0.0442,
        "meta_ra_of_asc_node": 138.043,
        "meta_arg_of_pericenter": 207.7117,
        "meta_mean_anomaly": 314.0536,
        "meta_ephemeris_type": 0,
        "meta_classification_type": "U",
        "meta_norad_cat_id": 36131,
        "meta_element_set_no": 999,
        "meta_rev_at_epoch": 4463,
        "meta_bstar": 0,
        "meta_mean_motion_dot": -1e-06,
        "meta_mean_motion_ddot": 0,
        "tle_line1": "1 36131U 09075A   25341.90448065 -.00000100  00000+0  00000+0 0  9996",
        "tle_line2": "2 36131   0.0442 138.0430 0000401 207.7117 314.0536  1.00270632 44635"
      },
      "geometry": {
        "type": "Point",
        "coordinates": [
          109.40690300665634,
          0.016923921093200612
        ]
      }
    },
    {
      "type": "Feature",
      "properties": {
        "norad_id": 36397,
        "name": "INTELSAT 16 (IS-16)",
        "group": "intelsat",
        "lat": 0.0008296869320924228,
        "lon": 135.9084104646929,
        "alt_km": 35791.99190380064,
        "timestamp": "2025-12-08T08:59:00.439781+00:00",
        "meta_object_name": "INTELSAT 16 (IS-16)",
        "meta_object_id": "2010-006A",
        "meta_epoch": "2025-12-07T21:49:33.946752",
        "meta_mean_motion": 1.00270597,
        "meta_eccentricity": 0.00023332,
        "meta_inclination": 0.0194,
        "meta_ra_of_asc_node": 302.5305,
        "meta_arg_of_pericenter": 317.4352,
        "meta_mean_anomaly": 68.1537,
        "meta_ephemeris_type": 0,
        "meta_classification_type": "U",
        "meta_norad_cat_id": 36397,
        "meta_element_set_no": 999,
        "meta_rev_at_epoch": 5773,
        "meta_bstar": 0,
        "meta_mean_motion_dot": -2.41e-06,
        "meta_mean_motion_ddot": 0,
        "tle_line1": "1 36397U 10006A   25341.90942068 -.00000241  00000+0  00000+0 0  9994",
        "tle_line2": "2 36397   0.0194 302.5305 0002333 317.4352  68.1537  1.00270597 57731"
      },
      "geometry": {
        "type": "Point",
        "coordinates": [
          135.9084104646929,
          0.0008296869320924228
        ]
      }
    },
    {
      "type": "Feature",
      "properties": {
        "norad_id": 37185,
        "name": "XM-5",
        "group": "intelsat",
        "lat": 0.013385667701568786,
        "lon": 96.91991621908278,
        "alt_km": 35783.37944688197,
        "timestamp": "2025-12-08T08:59:00.439793+00:00",
        "meta_object_name": "XM-5",
        "meta_object_id": "2010-053A",
        "meta_epoch": "2025-12-07T21:38:49.974720",
        "meta_mean_motion": 1.00269327,
        "meta_eccentricity": 0.00016981,
        "meta_inclination": 0.0629,
        "meta_ra_of_asc_node": 272.7874,
        "meta_arg_of_pericenter": 245.9532,
        "meta_mean_anomaly": 127.6966,
        "meta_ephemeris_type": 0,
        "meta_classification_type": "U",
        "meta_norad_cat_id": 37185,
        "meta_element_set_no": 999,
        "meta_rev_at_epoch": 5556,
        "meta_bstar": 0,
        "meta_mean_motion_dot": -2e-07,
        "meta_mean_motion_ddot": 0,
        "tle_line1": "1 37185U 10053A   25341.90196730 -.00000020  00000+0  00000+0 0  9994",
        "tle_line2": "2 37185   0.0629 272.7874 0001698 245.9532 127.6966  1.00269327 55562"
      },
      "geometry": {
        "type": "Point",
        "coordinates": [
          96.91991621908278,
          0.013385667701568786
        ]
      }
    }
  ]
}